*******************************************************************************
Ephemeris / WWW_USER Mon Mar 24 07:29:28 2025 Pasadena, USA      / Horizons    
*******************************************************************************
Target body name: (2018 PK21)                     {source: JPL#33}
Center body name: Earth (399)                     {source: DE441}
Center-site name: Mauna Kea
*******************************************************************************
Start time      : A.D. 2018-Sep-13 04:36:00.0000 UT      
Stop  time      : A.D. 2018-Sep-13 15:59:00.0000 UT      
Step-size       : 1 minutes
*******************************************************************************
Target pole/equ : undefined
Target radii    : undefined                                                    
Center geodetic : 204.5278, 19.8260847, 4.21024   {E-lon(deg),Lat(deg),Alt(km)}
Center cylindric: 204.5278, 6006.35451, 2151.0229 {E-lon(deg),Dxy(km),Dz(km)}
Center pole/equ : ITRF93                          {East-longitude positive}
Center radii    : 6378.137, 6378.137, 6356.752 km {Equator_a, b, pole_c}       
Target primary  : Sun
Vis. interferer : MOON (R_eq= 1737.400) km        {source: DE441}
Rel. light bend : Sun                             {source: DE441}
Rel. lght bnd GM: 1.3271E+11 km^3/s^2                                          
Small-body perts: Yes                             {source: SB441-N16}
Atmos refraction: NO (AIRLESS)
RA format       : HMS
Time format     : CAL 
Calendar mode   : Mixed Julian/Gregorian
RTS-only print  : NO       
EOP file        : eop.250321.p250617                                           
EOP coverage    : DATA-BASED 1962-JAN-20 TO 2025-MAR-21. PREDICTS-> 2025-JUN-16
Units conversion: 1 au= 149597870.700 km, c= 299792.458 km/s, 1 day= 86400.0 s 
Table cut-offs 1: Elevation (-90.0deg=NO ),Airmass (>38.000=NO), Daylight (YES)
Table cut-offs 2: Solar elongation (  0.0,180.0=NO ),Local Hour Angle( 0.0=NO )
Table cut-offs 3: RA/DEC angular rate (     0.0=NO )                           
*******************************************************************************
Initial IAU76/J2000 heliocentric ecliptic osculating elements (au, days, deg.):
  EPOCH=  2458678.5 ! 2019-Jul-14.00 (TDB)         Residual RMS= .18538        
   EC= .08059571149071894  QR= .9080173735553244   TP= 2458556.3979336754      
   OM= 305.3714803879685   W=  224.0867446587677   IN= 1.196977749955446       
  Equivalent ICRF heliocentric cartesian coordinates (au, au/d):
   X= 5.084898226316541E-01  Y=-8.259633024476691E-01  Z=-3.605371187528673E-01
  VX= 1.486595997640644E-02 VY= 6.429710771461657E-03 VZ= 3.158008025433540E-03
Asteroid physical parameters (km, seconds, rotational period in hours):        
   GM= n.a.                RAD= n.a.               ROTPER= n.a.                
   H= 25.88                G= .150                 B-V= n.a.                   
                           ALBEDO= n.a.            STYP= n.a.                  
*******************************************************************************
 Date__(UT)__HR:MN     R.A._________(ICRF)_________DEC
******************************************************
$$SOE
 2018-Sep-13 12:48     20 43 21.919698 -06 40 14.07025
 2018-Sep-13 12:49     20 43 21.886879 -06 40 14.22329
 2018-Sep-13 12:50     20 43 21.854198 -06 40 14.37627
 2018-Sep-13 12:51     20 43 21.821654 -06 40 14.52920
 2018-Sep-13 12:52     20 43 21.789247 -06 40 14.68208
 2018-Sep-13 12:53     20 43 21.756979 -06 40 14.83491
 2018-Sep-13 12:54     20 43 21.724848 -06 40 14.98769
 2018-Sep-13 12:55     20 43 21.692856 -06 40 15.14043
 2018-Sep-13 12:56     20 43 21.661002 -06 40 15.29312
 2018-Sep-13 12:57     20 43 21.629286 -06 40 15.44576
 2018-Sep-13 12:58     20 43 21.597708 -06 40 15.59836
 2018-Sep-13 12:59     20 43 21.566269 -06 40 15.75092
 2018-Sep-13 13:00     20 43 21.534969 -06 40 15.90344
 2018-Sep-13 13:01     20 43 21.503807 -06 40 16.05591
 2018-Sep-13 13:02     20 43 21.472784 -06 40 16.20835
 2018-Sep-13 13:03     20 43 21.441899 -06 40 16.36074
 2018-Sep-13 13:04     20 43 21.411154 -06 40 16.51310
 2018-Sep-13 13:05     20 43 21.380548 -06 40 16.66542
 2018-Sep-13 13:06     20 43 21.350080 -06 40 16.81771
 2018-Sep-13 13:07     20 43 21.319752 -06 40 16.96996
 2018-Sep-13 13:08     20 43 21.289563 -06 40 17.12217
 2018-Sep-13 13:09     20 43 21.259513 -06 40 17.27435
 2018-Sep-13 13:10     20 43 21.229603 -06 40 17.42651
 2018-Sep-13 13:11     20 43 21.199832 -06 40 17.57863
 2018-Sep-13 13:12     20 43 21.170200 -06 40 17.73072
 2018-Sep-13 13:13     20 43 21.140708 -06 40 17.88278
 2018-Sep-13 13:14     20 43 21.111355 -06 40 18.03481
 2018-Sep-13 13:15     20 43 21.082143 -06 40 18.18682
 2018-Sep-13 13:16     20 43 21.053069 -06 40 18.33880
 2018-Sep-13 13:17     20 43 21.024136 -06 40 18.49076
 2018-Sep-13 13:18     20 43 20.995342 -06 40 18.64269
 2018-Sep-13 13:19     20 43 20.966688 -06 40 18.79460
 2018-Sep-13 13:20     20 43 20.938174 -06 40 18.94649
 2018-Sep-13 13:21     20 43 20.909800 -06 40 19.09836
 2018-Sep-13 13:22     20 43 20.881566 -06 40 19.25021
 2018-Sep-13 13:23     20 43 20.853471 -06 40 19.40204
 2018-Sep-13 13:24     20 43 20.825517 -06 40 19.55385
 2018-Sep-13 13:25     20 43 20.797703 -06 40 19.70565
 2018-Sep-13 13:26     20 43 20.770029 -06 40 19.85743
 2018-Sep-13 13:27     20 43 20.742494 -06 40 20.00919
 2018-Sep-13 13:28     20 43 20.715100 -06 40 20.16095
 2018-Sep-13 13:29     20 43 20.687846 -06 40 20.31269
 2018-Sep-13 13:30     20 43 20.660732 -06 40 20.46442
 2018-Sep-13 13:31     20 43 20.633758 -06 40 20.61613
 2018-Sep-13 13:32     20 43 20.606925 -06 40 20.76784
 2018-Sep-13 13:33     20 43 20.580231 -06 40 20.91954
 2018-Sep-13 13:34     20 43 20.553678 -06 40 21.07124
 2018-Sep-13 13:35     20 43 20.527264 -06 40 21.22292
 2018-Sep-13 13:36     20 43 20.500991 -06 40 21.37461
 2018-Sep-13 13:37     20 43 20.474858 -06 40 21.52628
 2018-Sep-13 13:38     20 43 20.448865 -06 40 21.67796
 2018-Sep-13 13:39  s  20 43 20.423012 -06 40 21.82963
 2018-Sep-13 13:40     20 43 20.397299 -06 40 21.98130
 2018-Sep-13 13:41     20 43 20.371727 -06 40 22.13297
 2018-Sep-13 13:42     20 43 20.346294 -06 40 22.28465
 2018-Sep-13 13:43     20 43 20.321001 -06 40 22.43632
 2018-Sep-13 13:44     20 43 20.295849 -06 40 22.58800
 2018-Sep-13 13:45     20 43 20.270836 -06 40 22.73968
 2018-Sep-13 13:46     20 43 20.245964 -06 40 22.89136
 2018-Sep-13 13:47     20 43 20.221231 -06 40 23.04306
 2018-Sep-13 13:48     20 43 20.196638 -06 40 23.19476
 2018-Sep-13 13:49     20 43 20.172185 -06 40 23.34646
 2018-Sep-13 13:50     20 43 20.147872 -06 40 23.49818
 2018-Sep-13 13:51     20 43 20.123699 -06 40 23.64990
 2018-Sep-13 13:52     20 43 20.099665 -06 40 23.80164
 2018-Sep-13 13:53     20 43 20.075771 -06 40 23.95339
 2018-Sep-13 13:54     20 43 20.052017 -06 40 24.10515
 2018-Sep-13 13:55     20 43 20.028402 -06 40 24.25693
 2018-Sep-13 13:56     20 43 20.004927 -06 40 24.40872
 2018-Sep-13 13:57     20 43 19.981591 -06 40 24.56053
 2018-Sep-13 13:58     20 43 19.958395 -06 40 24.71236
 2018-Sep-13 13:59     20 43 19.935338 -06 40 24.86420
 2018-Sep-13 14:00     20 43 19.912421 -06 40 25.01606
 2018-Sep-13 14:01     20 43 19.889642 -06 40 25.16795
 2018-Sep-13 14:02     20 43 19.867003 -06 40 25.31985
 2018-Sep-13 14:03     20 43 19.844503 -06 40 25.47178
 2018-Sep-13 14:04     20 43 19.822142 -06 40 25.62373
 2018-Sep-13 14:05     20 43 19.799920 -06 40 25.77570
 2018-Sep-13 14:06     20 43 19.777836 -06 40 25.92770
 2018-Sep-13 14:07     20 43 19.755892 -06 40 26.07973
 2018-Sep-13 14:08     20 43 19.734086 -06 40 26.23178
 2018-Sep-13 14:09     20 43 19.712418 -06 40 26.38387
 2018-Sep-13 14:10     20 43 19.690890 -06 40 26.53598
 2018-Sep-13 14:11     20 43 19.669499 -06 40 26.68812
 2018-Sep-13 14:12     20 43 19.648247 -06 40 26.84029
 2018-Sep-13 14:13     20 43 19.627133 -06 40 26.99250
 2018-Sep-13 14:14     20 43 19.606157 -06 40 27.14474
 2018-Sep-13 14:15     20 43 19.585320 -06 40 27.29701
 2018-Sep-13 14:16     20 43 19.564620 -06 40 27.44932
 2018-Sep-13 14:17     20 43 19.544058 -06 40 27.60167
 2018-Sep-13 14:18     20 43 19.523633 -06 40 27.75405
 2018-Sep-13 14:19     20 43 19.503346 -06 40 27.90647
 2018-Sep-13 14:20     20 43 19.483197 -06 40 28.05894
 2018-Sep-13 14:21     20 43 19.463185 -06 40 28.21144
 2018-Sep-13 14:22     20 43 19.443310 -06 40 28.36398
 2018-Sep-13 14:23     20 43 19.423572 -06 40 28.51657
 2018-Sep-13 14:24     20 43 19.403971 -06 40 28.66920
 2018-Sep-13 14:25     20 43 19.384507 -06 40 28.82187
 2018-Sep-13 14:26     20 43 19.365180 -06 40 28.97459
 2018-Sep-13 14:27     20 43 19.345989 -06 40 29.12736
 2018-Sep-13 14:28     20 43 19.326935 -06 40 29.28017
 2018-Sep-13 14:29     20 43 19.308017 -06 40 29.43303
 2018-Sep-13 14:30     20 43 19.289235 -06 40 29.58594
 2018-Sep-13 14:31     20 43 19.270589 -06 40 29.73890
 2018-Sep-13 14:32     20 43 19.252079 -06 40 29.89192
 2018-Sep-13 14:33     20 43 19.233705 -06 40 30.04498
 2018-Sep-13 14:34     20 43 19.215466 -06 40 30.19810
 2018-Sep-13 14:35     20 43 19.197363 -06 40 30.35127
 2018-Sep-13 14:36     20 43 19.179395 -06 40 30.50450
 2018-Sep-13 14:37     20 43 19.161562 -06 40 30.65779
 2018-Sep-13 14:38     20 43 19.143863 -06 40 30.81113
 2018-Sep-13 14:39     20 43 19.126300 -06 40 30.96453
 2018-Sep-13 14:40     20 43 19.108871 -06 40 31.11799
 2018-Sep-13 14:41     20 43 19.091577 -06 40 31.27151
 2018-Sep-13 14:42     20 43 19.074417 -06 40 31.42509
 2018-Sep-13 14:43     20 43 19.057391 -06 40 31.57874
 2018-Sep-13 14:44     20 43 19.040499 -06 40 31.73245
 2018-Sep-13 14:45     20 43 19.023740 -06 40 31.88622
 2018-Sep-13 14:46     20 43 19.007115 -06 40 32.04005
 2018-Sep-13 14:47     20 43 18.990624 -06 40 32.19396
 2018-Sep-13 14:48     20 43 18.974265 -06 40 32.34793
 2018-Sep-13 14:49     20 43 18.958040 -06 40 32.50196
 2018-Sep-13 14:50     20 43 18.941947 -06 40 32.65607
